 2014  630 1845 23.5 L  51.608 143.005 22.1  SAK  3 0.5 2.1LSAK                1
 GAP=169        1.26       4.2     8.0 15.8 -0.6745E+01  0.1355E+02  0.3170E+02E
 ACTION:UP  21-11-13 11:08 OP:vi   STATUS:               ID:20140630184431     I
 OLDACT:ARG 21-10-16 08:48 OP:vi   STATUS:               ID:20140630184431     3
 2014-06-30-1844-31S.IMGG__027                                                 6
 STAT SP IPHASW D HRMM SECON CODA AMPLIT PERI AZIMU VELO AIN AR TRES W  DIS CAZ7
 ARGI SZ IP       1845 30.08                             115   -0.5510 34.1 215 
 ARGI SZ  IAML    1845 33.20       101.8 0.30                          34.1 215 
 ARGI SZ  APGA  C 1845 30.05      23.4e4 0.10                                   
 ARGI SZ  E     C 1845 14.97     80326.0 59.1                                   
 ARGI SN IS       1845 36.81                             115    0.3010 34.1 215 
 ARGI SN  APGA  C 1845 36.08      40.1e4 0.11                                   
 ARGI SN  E     C 1845 12.35      30.8e4                                        
 ARGI SE  APGA  C 1845 35.93      39.0e4 0.14                                   
 ARGI SE  E     C 1846  9.81     42606.7 50.0                                   
 LNSK SZ IP       1845 31.33                             116    0.8510 33.0 134 
 LNSK SZ  IAML    1845 36.48        86.8 0.34                          33.0 134 
 LNSK SZ  APGA  C 1845 28.55      16.7e4 0.22                                   
 LNSK SZ  E     C 1845 43.00     52021.0 51.3                                   
 LNSK SN IS       1845 35.76                             116   -0.4710 33.0 134 
 LNSK SN  APGA  C 1845 33.21      18.9e4 0.46                                   
 LNSK SN  E     C 1845  5.90     77639.0 49.1                                   
 LNSK SE  APGA  C 1845 33.86      32.8e4 0.18                                   
 LNSK SE  E     C 1845 14.67      21.4e4                                        
 NGLK SZ IP       1845 28.67                             130   -0.2910 21.1  23 
 NGLK SZ  IAML    1845 32.49       182.4 0.19                          21.1  23 
 NGLK SZ  APGA  C 1845 28.60     136.3e4 0.13                                   
 NGLK SZ  E     C 1845 36.06     18420.4 94.8                                   
 NGLK SN IS       1845 33.63                             130    0.1610 21.1  23 
 NGLK SN  APGA  C 1845 32.18     236.9e4 0.13                                   
 NGLK SN  E     C 1845  0.00     76021.7 77.9                                   
 NGLK SE  APGA  C 1845 32.27     205.3e4 0.19                                   
 NGLK SE  E     C 1845 32.20     39156.7 0.13                                   
                                                                                
 2014  630 1927 24.3 L  52.796 139.904 30.0  SAK  315.6 3.5LSAK                1
 GAP=347       38.94     999.9   999.9999.9 -0.6795E+09 -0.1855E+10  0.7098E+09E
 ACTION:UP  21-11-13 11:08 OP:vi   STATUS:               ID:20140630192720     I
 OLDACT:ARG 21-10-16 08:48 OP:vi   STATUS:               ID:20140630192720     3
 2014-06-30-1927-20S.IMGG__027                                                 6
 STAT SP IPHASW D HRMM SECON CODA AMPLIT PERI AZIMU VELO AIN AR TRES W  DIS CAZ7
 ARGI SZ IP       1927 55.13                              56   -4.4310  251 129 
 ARGI SZ  IAML    1928 27.95       144.3 10.4                           251 129 
 ARGI SZ  APGA  C 1928 29.02      28.4e4 0.10                                   
 ARGI SZ  E     C 1927 54.86      28.8e4 67.6                                   
 ARGI SN IS       1928 22.07                              56   -6.4010  251 129 
 ARGI SN  APGA  C 1928 21.53      27.3e4 0.10                                   
 ARGI SN  E     C 1928 21.54      4532.2 0.10                                   
 ARGI SE  APGA    1928 20.61      43.9e4 0.22                                   
 ARGI SE  E       1928 35.50      4998.5 0.16                                   
 LNSK SZ IP       1928 31.86                              56   28.4310  282 122 
 LNSK SZ  IAML    1928 33.68        43.6 0.61                           282 122 
 LNSK SZ  APGA    1928 33.53      10.9e4 0.21                                   
 LNSK SZ  E       1928 33.44      1858.6 0.21                                   
 LNSK SN IS       1928 36.65                              56    1.1310  282 122 
 LNSK SN  APGA  C 1928 32.92      29.5e4 0.16                                   
 LNSK SN  E       1928 32.85      8410.4 0.18                                   
 LNSK SE  APGA    1928 33.44      14.0e4 0.14                                   
 LNSK SE  E     C 1928 33.45      4577.8 0.14                                   
 NGLK SZ IP       1927 35.36                              56   -23.710  247 116 
 NGLK SZ  IAML    1928  9.60       101.8 35.6                           247 116 
 NGLK SZ  APGA  C 1928 29.91      34.4e4 0.13                                   
 NGLK SZ  E     C 1928 29.56      2710.0 0.18                                   
 NGLK SN IS       1928 32.45                              56    4.9410  247 116 
 NGLK SN  APGA  C 1928 32.46      76.0e4 0.11                                   
 NGLK SN  E     C 1928 32.43     12596.6 0.10                                   
 NGLK SE  APGA  C 1928 32.43      66.3e4 0.11                                   
 NGLK SE  E     C 1928 32.41     12888.5 0.16                                   
                                                                                
 2014  630 2058 16.7 L  51.563 143.029  2.0  SAK  8 3.9 4.5LSAK                1
 GAP=114       10.34      13.8    39.6 30.3 -0.1360E+03  0.2057E+03 -0.4189E+02E
 ACTION:UP  21-11-13 11:08 OP:vi   STATUS:               ID:20140630205714     I
 OLDACT:ARG 21-10-16 08:48 OP:vi   STATUS:               ID:20140630205714     3
 2014-06-30-2057-14S.IMGG__027                                                 6
 STAT SP IPHASW D HRMM SECON CODA AMPLIT PERI AZIMU VELO AIN AR TRES W  DIS CAZ7
 TYV  BZ IP       2058 38.54                              41    7.1210 82.1 199 
 TYV  BN IS       2058 42.13                              41   -1.3310 82.1 199 
 OKH  BN IS       2059 24.05                              29    3.9710  227 359 
 A732 BZ IP       2059  2.19                              29   -3.3010  339 217 
 A732 BZ  APGA  C 21 0  2.48     28466.0 1.24                                   
 A732 BN IS       2059 42.31                              29   -3.1510  339 217 
 A732 BN  APGA  C 2059 57.55     33010.5 1.38                                   
 A732 BE  APGA  C 2059 59.85     31645.0 1.18                                   
 ARGI SZ IP       2058 20.27                              41   -2.6210 31.2 222 
 ARGI SZ  IAML    2058 32.51     63974.6 1.01                          31.2 222 
 ARGI SZ  APGA  C 2058 21.68      12.5e6 0.16                                   
 ARGI SZ  E     C 2058 20.23      61.7e4 0.21                                   
 ARGI SN IS       2058 29.85                              41    1.9210 31.2 222 
 ARGI SN  APGA  C 2058 26.31      42.4e6 0.13                                   
 ARGI SN  E     C 2058 30.83     192.3e4 0.45                                   
 ARGI SE  APGA  C 2058 25.83      65.6e6 0.14                                   
 ARGI SE  E     C 2058 25.98     265.7e4 0.34                                   
 CHIVOSZ IP       2058 32.84                              41   -2.3410  105   5 
 CHIVOSZ  APGA  C 2058 58.53      26.3e6 0.48                                   
 CHIVOSN IS       2058 49.01                              41   -1.2910  105   5 
 CHIVOSN  APGA  C 2058 47.71      83.2e6 0.48                                   
 CHIVOSE  APGA  C 2058 54.35      81.4e6 0.42                                   
 LNSK SZ IP       2058 19.97                              41   -2.4410 28.4 130 
 LNSK SZ  IAML    2058 26.81     54929.4 0.46                          28.4 130 
 LNSK SZ  APGA  C 2058 24.13      32.5e6 0.35                                   
 LNSK SZ  E     C 2058 26.98      93.2e4 0.50                                   
 LNSK SN IS       2058 28.36                              41    1.2910 28.4 130 
 LNSK SN  APGA  C 2058 24.37      54.9e6 0.14                                   
 LNSK SN  E       2058 24.39     157.2e4 0.16                                   
 LNSK SE  APGA  C 2058 23.95      49.4e6 0.18                                   
 LNSK SE  E     C 2058 24.13     214.2e4 0.32                                   
 NGLK SZ IP       2058 18.77                              41   -3.1410 25.4  15 
 NGLK SZ  IAML    2058 23.59     45140.7 0.26                          25.4  15 
 NGLK SZ  APGA    2058 19.99      70.9e6 0.13                                   
 NGLK SZ  E     C 2058 24.49     115.5e4 0.29                                   
 NGLK SN IS       2058 23.56                              41   -2.6010 25.4  15 
 NGLK SN  APGA  C 2058 22.75     167.8e6 0.24                                   
 NGLK SN  E     C 2058 22.85     547.0e4 0.22                                   
 NGLK SE  APGA  C 2058 22.96     192.9e6 0.16                                   
 NGLK SE  E     C 2058 23.02     574.2e4 0.19                                   
 NKL  HZ IP       2058 50.52                              29   -2.4010  238 319 
 NKL  HN IS       2059 22.85                              29    0.2610  238 319 
 OKH  BZ IP       2059  1.59                              29   10.0510  227 359 
                                                                                
 2014  630 2104 25.7 L  51.783 143.126  0.0  SAK  410.1 2.1LSAK                1
 GAP=158       25.91      48.6   200.2 20.9 -0.1272E+04 -0.1060E+04  0.3872E+03E
 ACTION:UP  21-11-13 11:09 OP:vi   STATUS:               ID:20140630210353     I
 OLDACT:UP  21-11-13 11:08 OP:vi   STATUS:               ID:20140630210353     3
 OLDACT:ARG 21-10-16 08:48 OP:vi   STATUS:               ID:20140630210353     3
 2014-06-30-2103-53S.IMGG__027                                                 6
 STAT SP IPHASW D HRMM SECON CODA AMPLIT PERI AZIMU VELO AIN AR TRES W  DIS CAZ7
 ARGI SZ IP       21 4 57.69                              25   21.0310 55.0 210 
 ARGI SZ  IAML    21 5  1.25       125.2 1.62                          55.0 210 
 ARGI SZ  E     C 21 4 59.50      1790.9 0.30                                   
 ARGI SN IS       21 4 41.72                              25   -3.9210 55.0 210 
 ARGI SN  E       21 4 39.60      2012.7 0.13                                   
 ARGI SE  E     C 21 4 38.59      3276.3 0.18                                   
 CHIVOSZ IP       21 4 45.75                              25    4.9110 80.1   2 
 CHIVOSN IS       21 4 57.50                              25    4.2510 80.1   2 
 LNSK SZ IP       21 4 36.56                              25    1.5410 45.2 160 
 LNSK SZ  IAML    21 4 39.40        48.2 1.66                          45.2 160 
 LNSK SZ  E     C 21 4 37.52      1203.8 0.13                                   
 LNSK SN IS       21 4 37.68                              25   -4.9810 45.2 160 
 LNSK SN  E     C 21 4 35.91      4114.6 0.18                                   
 LNSK SE  E       21 4 35.80      2349.8 0.14                                   
 NGLK SZ IP       21 4 17.76                             169   -7.9410 0.00 334 
 NGLK SZ  IAML    21 4 24.79       118.1 0.35                          0.00 334 
 NGLK SZ  E       21 4 31.24      5428.2 0.18                                   
 NGLK SN IS       21 4 10.81                             169   -14.910 0.00 334 
 NGLK SN  E     C 21 4  7.95      6023.5 0.26                                   
 NGLK SE  E     C 21 4 35.44     10627.5 0.11                                   
                                                                                
 2014  630 2106  5.5 L  51.958 143.208 48.8  SAK  5 3.6 3.7LSAK                1
 GAP=174        9.29      24.5   140.4 61.0 -0.1112E+04  0.1285E+04  0.9834E+02E
 ACTION:UP  21-11-13 11:09 OP:vi   STATUS:               ID:20140630210543     I
 OLDACT:ARG 21-10-16 08:48 OP:vi   STATUS:               ID:20140630210543     3
 2014-06-30-2105-43S.IMGG__027                                                 6
 STAT SP IPHASW D HRMM SECON CODA AMPLIT PERI AZIMU VELO AIN AR TRES W  DIS CAZ7
 TYV  BZ IP       21 6 27.76                             101    2.4010  128 198 
 TYV  BZ  IAML    21 6 29.33     19079.1 46.3                           128 198 
 TYV  BN IS       21 6 38.82                             101   -2.8610  128 198 
 ARGI SZ IP       21 6 19.99                             112    1.0610 74.8 207 
 ARGI SZ  IAML    21 6 32.22      1384.8 0.32                          74.8 207 
 ARGI SZ  E     C 21 6 19.93     49562.2 0.21                                   
 ARGI SN IS       21 6 28.00                             112   -1.9710 74.8 207 
 ARGI SN  E       21 6 25.65      13.3e4 0.18                                   
 ARGI SE  E       21 6 25.58      10.3e4 0.14                                   
 CHIVOSZ IP       21 6 21.14                             118    3.8310 60.5 358 
 CHIVOSN IS       21 6 20.63                             118   -6.4010 60.5 358 
 LNSK SZ IP       21 6 18.47                             117    0.9110 62.8 171 
 LNSK SZ  IAML    21 6 23.68      1808.7 0.14                          62.8 171 
 LNSK SZ  E     C 21 6 23.72     67307.6 0.14                                   
 LNSK SN IS       21 6 23.05                             117   -4.4310 62.8 171 
 LNSK SN  E     C 21 6 23.16      13.7e4 0.11                                   
 LNSK SE  E       21 6 23.47      10.4e4 0.14                                   
 NGLK SZ IP       21 6 18.72                             153    5.0110 20.3 196 
 NGLK SZ  IAML    21 6 22.79       781.5 0.21                          20.3 196 
 NGLK SZ  E       21 6 24.32     33657.9 0.18                                   
 NGLK SN IS       21 6 22.92                             153    2.4510 20.3 196 
 NGLK SN  E       21 6 22.68      11.1e4 0.16                                   
 NGLK SE  E     C 21 6 22.76      12.4e4 0.14                                   
                                                                                
 2014  630 2109 57.9 L  51.564 143.027 23.3  SAK  4 0.6 2.7LSAK                1
 GAP=153        1.53       4.2     9.1 13.2 -0.9539E+01  0.2994E+02  0.2085E+02E
 ACTION:UP  21-11-13 11:09 OP:vi   STATUS:               ID:20140630210928     I
 OLDACT:ARG 21-10-16 08:48 OP:vi   STATUS:               ID:20140630210928     3
 2014-06-30-2109-28S.IMGG__027                                                 6
 STAT SP IPHASW D HRMM SECON CODA AMPLIT PERI AZIMU VELO AIN AR TRES W  DIS CAZ7
 NGLK SN IS       2110  8.44                             126   -0.5910 25.3  16 
 TYV  BZ IP       2110 11.40                              98   -0.8110 82.1 199 
 TYV  BZ  IAML    2110 21.67     21737.2 34.1                          82.1 199 
 TYV  BN IS       2110 23.67                              98   -0.2610 82.1 199 
 ARGI SZ IP       2110  5.04                             120    0.2810 31.1 222 
 ARGI SZ  IAML    2110 15.20       492.4 0.58                          31.1 222 
 ARGI SZ  E     C 2110  4.94     15203.5 0.16                                   
 ARGI SN IS       2110 10.66                             120    0.2910 31.1 222 
 ARGI SN  E     C 2110 10.69     30534.2 0.13                                   
 ARGI SE  E       2110 10.67     46032.3 0.34                                   
 LNSK SZ IP       2110  5.49                             122    1.0710 28.5 129 
 LNSK SZ  IAML    2110  8.60       524.4 0.26                          28.5 129 
 LNSK SZ  E     C 2110  8.63     14355.1 0.27                                   
 LNSK SN IS       2110  9.34                             122   -0.4110 28.5 129 
 LNSK SN  E     C 2110  8.25     36345.7 0.18                                   
 LNSK SE  E     C 2110  8.14     36206.0 0.40                                   
 NGLK SZ IP       2110  4.45                             126    0.4310 25.3  16 
 NGLK SZ  IAML    2110  9.37       554.4 0.37                          25.3  16 
                                                                                
 2014  630 2113  9.0 L                       SAK                               1
 ACTION:UP  21-11-13 11:09 OP:vi   STATUS:               ID:20140630211309     I
 OLDACT:ARG 21-10-16 08:48 OP:vi   STATUS:               ID:20140630211309     3
 2014-06-30-2113-09S.IMGG__027                                                 6
 STAT SP IPHASW D HRMM SECON CODA AMPLIT PERI AZIMU VELO AIN AR TRES W  DIS CAZ7
                                                                                
 2014  630 2118 17.6 L  49.796 141.321 32.2  SAK  3 8.9 3.6LSAK                1
 GAP=187       22.26     523.6   999.9999.9 -0.5605E+06 -0.7120E+08  0.2610E+08E
 ACTION:UP  21-11-13 11:09 OP:vi   STATUS:               ID:20140630211834     I
 OLDACT:ARG 21-10-16 08:48 OP:vi   STATUS:               ID:20140630211834     3
 2014-06-30-2118-34S.IMGG__027                                                 6
 STAT SP IPHASW D HRMM SECON CODA AMPLIT PERI AZIMU VELO AIN AR TRES W  DIS CAZ7
 A732 BZ IP       2118 36.74                              90    1.6410  110 225 
 A732 BN IS       2118 43.31                              90   -6.0910  110 225 
 ARGI SZ IP       2118 59.93                              90   13.5910  200  29 
 ARGI SZ  IAML    2119  5.53       145.4 0.26                           200  29 
 ARGI SN IS       2119  6.63                              90   -3.2310  200  29 
 LNSK SZ IP       2118 57.52                              90    7.6010  229  38 
 LNSK SN IS       2119  2.88                              90   -13.510  229  38 
 LNSK SZ  IAML    2119  5.83        75.0 0.53                           229  38 
                                                                                
 2014  630 2124 17.8 L  51.697 143.118  6.2  SAK  3 0.5 2.5LSAK                1
 GAP=299        1.29       9.0     8.4 10.0  0.6576E+01  0.2453E+02  0.1258E+02E
 ACTION:UP  21-11-13 11:09 OP:vi   STATUS:               ID:20140630212342     I
 OLDACT:UP  21-11-13 11:04 OP:vi   STATUS:               ID:20140630212342     3
 OLDACT:ARG 21-10-16 08:48 OP:vi   STATUS:               ID:20140630212342     3
 2014-06-30-2123-42S.IMGG__027                                                 6
 STAT SP IPHASW D HRMM SECON CODA AMPLIT PERI AZIMU VELO AIN AR TRES W  DIS CAZ7
 LNSK SZ IP       2124 25.14                              94    0.3510 36.5 155 
 LNSK SN IS       2124 30.34                              94   -0.1910 36.5 155 
 LNSK SZ  IAML    2124 30.83       256.9 0.13                          36.5 155 
 ARGI SZ  IAML    2124 26.94       304.8 0.18                          46.6 216 
 ARGI SZ IP       2124 27.01                              93    0.5310 46.6 216 
 ARGI SN IS       2124 33.31                              93   -0.2910 46.6 216 
 TYV  BZ IP       2124 34.17                              65   -0.8710 98.1 199 
 TYV  BN IS       2124 49.66                              65    0.4810 98.1 199 
                                                                                
