 2014  630 2125  7.3 L  51.554 143.106 32.1  SAK  4 1.5 2.9LSAK                1
 GAP=133        3.75      12.6    30.5 37.0  0.1063E+02  0.6194E+03  0.2069E+03E
 ACTION:UP  21-11-13 11:09 OP:vi   STATUS:               ID:20140630212501     I
 OLDACT:ARG 21-10-16 08:48 OP:vi   STATUS:               ID:20140630212501     3
 2014-06-30-2125-01S.IMGG__027                                                 6
 STAT SP IPHASW D HRMM SECON CODA AMPLIT PERI AZIMU VELO AIN AR TRES W  DIS CAZ7
 LNSK SZ IP       2125 14.42                             129    0.3210 23.8 136 
 LNSK SN IS       2125 19.79                             129    0.0710 23.8 136 
 LNSK SZ  IAML    2125 23.43       366.9 0.48                          23.8 136 
 NGLK SZ IP       2125 14.68                             126    0.4110 25.5   3 
 NGLK SN IS       2125 18.64                             126   -1.3910 25.5   3 
 NGLK SZ  IAML    2125 19.79       657.5 0.22                          25.5   3 
 ARGI SZ  IAML    2125 16.30       947.3 0.19                          34.4 230 
 ARGI SZ IP       2125 16.35                             109    1.0910 34.4 230 
 ARGI SN IS       2125 22.34                             109    0.5210 34.4 230 
 TYV  BZ IP       2125 23.40                              90    2.0310 83.0 202 
 TYV  BN IS       2125 29.92                              90   -3.0310 83.0 202 
                                                                                
 2014  630 2130 18.0 L                       SAK                               1
 ACTION:UP  21-11-13 11:09 OP:vi   STATUS:               ID:20140630213018     I
 OLDACT:ARG 21-10-16 08:48 OP:vi   STATUS:               ID:20140630213018     3
 2014-06-30-2130-18S.IMGG__024                                                 6
 STAT SP IPHASW D HRMM SECON CODA AMPLIT PERI AZIMU VELO AIN AR TRES W  DIS CAZ7
                                                                                
 2014  630 2131 29.0 L                                                         1
 ACTION:ARG 21-10-16 08:48 OP:vi   STATUS:               ID:20140630213129     I
 2014-06-30-2131-29S.IMGG__024                                                 6
 STAT SP IPHASW D HRMM SECON CODA AMPLIT PERI AZIMU VELO AIN AR TRES W  DIS CAZ7
                                                                                
 2014  630 2137 19.0 L                                                         1
 ACTION:ARG 21-10-16 08:48 OP:vi   STATUS:               ID:20140630213719     I
 2014-06-30-2137-19S.IMGG__027                                                 6
 STAT SP IPHASW D HRMM SECON CODA AMPLIT PERI AZIMU VELO AIN AR TRES W  DIS CAZ7
                                                                                
 2014  630 2141 31.0 L                                                         1
 ACTION:ARG 21-10-16 08:48 OP:vi   STATUS:               ID:20140630214131     I
 2014-06-30-2141-31S.IMGG__027                                                 6
 STAT SP IPHASW D HRMM SECON CODA AMPLIT PERI AZIMU VELO AIN AR TRES W  DIS CAZ7
                                                                                
 2014  630 2211 56.0 L                                                         1
 ACTION:ARG 21-10-16 08:48 OP:vi   STATUS:               ID:20140630221156     I
 2014-06-30-2211-56S.IMGG__027                                                 6
 STAT SP IPHASW D HRMM SECON CODA AMPLIT PERI AZIMU VELO AIN AR TRES W  DIS CAZ7
                                                                                
 2014  630 2212 39.0 L                                                         1
 ACTION:ARG 21-10-16 08:48 OP:vi   STATUS:               ID:20140630221239     I
 2014-06-30-2212-39S.IMGG__027                                                 6
 STAT SP IPHASW D HRMM SECON CODA AMPLIT PERI AZIMU VELO AIN AR TRES W  DIS CAZ7
                                                                                
 2014  630 2223  3.0 L                                                         1
 ACTION:ARG 21-10-16 08:48 OP:vi   STATUS:               ID:20140630222303     I
 2014-06-30-2223-03S.IMGG__027                                                 6
 STAT SP IPHASW D HRMM SECON CODA AMPLIT PERI AZIMU VELO AIN AR TRES W  DIS CAZ7
                                                                                
 2014  630 2242 30.0 L                                                         1
 ACTION:ARG 21-10-16 08:48 OP:vi   STATUS:               ID:20140630224230     I
 2014-06-30-2242-30S.IMGG__027                                                 6
 STAT SP IPHASW D HRMM SECON CODA AMPLIT PERI AZIMU VELO AIN AR TRES W  DIS CAZ7
                                                                                
 2014  630 2244 33.0 L                                                         1
 ACTION:ARG 21-10-16 08:48 OP:vi   STATUS:               ID:20140630224433     I
 2014-06-30-2244-33S.IMGG__027                                                 6
 STAT SP IPHASW D HRMM SECON CODA AMPLIT PERI AZIMU VELO AIN AR TRES W  DIS CAZ7
                                                                                
 2014  630 2250 27.0 L                                                         1
 ACTION:ARG 21-10-16 08:48 OP:vi   STATUS:               ID:20140630225027     I
 2014-06-30-2250-27S.IMGG__024                                                 6
 STAT SP IPHASW D HRMM SECON CODA AMPLIT PERI AZIMU VELO AIN AR TRES W  DIS CAZ7
                                                                                
 2014  630 2256 29.0 L                                                         1
 ACTION:ARG 21-10-16 08:48 OP:vi   STATUS:               ID:20140630225629     I
 2014-06-30-2256-29S.IMGG__027                                                 6
 STAT SP IPHASW D HRMM SECON CODA AMPLIT PERI AZIMU VELO AIN AR TRES W  DIS CAZ7
                                                                                
 2014  630 23 1 18.0 L                                                         1
 ACTION:ARG 21-10-16 08:48 OP:vi   STATUS:               ID:20140630230118     I
 2014-06-30-2301-18S.IMGG__027                                                 6
 STAT SP IPHASW D HRMM SECON CODA AMPLIT PERI AZIMU VELO AIN AR TRES W  DIS CAZ7
                                                                                
 2014  630 23 6 21.0 L                                                         1
 ACTION:ARG 21-10-16 08:48 OP:vi   STATUS:               ID:20140630230621     I
 2014-06-30-2306-21S.IMGG__027                                                 6
 STAT SP IPHASW D HRMM SECON CODA AMPLIT PERI AZIMU VELO AIN AR TRES W  DIS CAZ7
                                                                                
 2014  630 2316 34.0 L                                                         1
 ACTION:ARG 21-10-16 08:48 OP:vi   STATUS:               ID:20140630231634     I
 2014-06-30-2316-34S.IMGG__027                                                 6
 STAT SP IPHASW D HRMM SECON CODA AMPLIT PERI AZIMU VELO AIN AR TRES W  DIS CAZ7
                                                                                
 2014  630 2324  5.0 L                                                         1
 ACTION:ARG 21-10-16 08:48 OP:vi   STATUS:               ID:20140630232405     I
 2014-06-30-2324-05S.IMGG__027                                                 6
 STAT SP IPHASW D HRMM SECON CODA AMPLIT PERI AZIMU VELO AIN AR TRES W  DIS CAZ7
                                                                                
 2014  630 2333 57.0 L                                                         1
 ACTION:ARG 21-10-16 08:48 OP:vi   STATUS:               ID:20140630233357     I
 2014-06-30-2333-57S.IMGG__027                                                 6
 STAT SP IPHASW D HRMM SECON CODA AMPLIT PERI AZIMU VELO AIN AR TRES W  DIS CAZ7
                                                                                
 2014  630 2346  1.0 L                                                         1
 ACTION:ARG 21-10-16 08:48 OP:vi   STATUS:               ID:20140630234601     I
 2014-06-30-2346-01S.IMGG__027                                                 6
 STAT SP IPHASW D HRMM SECON CODA AMPLIT PERI AZIMU VELO AIN AR TRES W  DIS CAZ7
                                                                                
 2014  630 2355 51.0 L                                                         1
 ACTION:ARG 21-10-16 08:48 OP:vi   STATUS:               ID:20140630235551     I
 2014-06-30-2355-51S.IMGG__027                                                 6
 STAT SP IPHASW D HRMM SECON CODA AMPLIT PERI AZIMU VELO AIN AR TRES W  DIS CAZ7
 ARGI SN IS       2357 14.49                                                    
 LNSK SE ES       2357 11.26                                                    
 NGLK SE IS       2357 10.79                                                    
 ARGI SZ IP     C 2357  8.63                                                    
 ARGI SZ  IAML    2357 24.09        79.9 1.38                                   
 LNSK SZ EP       2357  6.94                                                    
 LNSK SZ  IAML    2357 12.03       157.9 0.18                                   
 NGLK SZ EP       2357  6.97                                                    
 NGLK SZ  IAML    2357 12.03       151.2 0.18                                   
                                                                                
