 2014  630 1442 30.9 L  51.512 143.070 15.8  SAK  5 0.3 3.8LSAK                1
 GAP=130        0.90       1.7     4.4  4.8 -0.1583E+01  0.1044E+02  0.6046E+00E
 ACTION:UP  21-12-04 08:49 OP:vi   STATUS:               ID:20140630144043     I
 OLDACT:UP  21-11-13 11:07 OP:vi   STATUS:               ID:20140630144043     3
 OLDACT:ARG 21-10-16 08:48 OP:vi   STATUS:               ID:20140630144043     3
 2014-06-30-1440-43S.IMGG__030                                                 6
 STAT SP IPHASW D HRMM SECON CODA AMPLIT PERI AZIMU VELO AIN AR TRES W  DIS CAZ7
 A732 BZ IP       1443 18.02                              56    0.1410  336 218 
 A732 BZ  APGA    1444 18.82      4772.5 1.16                           336 218 
 A732 BN IS       1443 56.42                              56   -0.0310  336 218 
 A732 BN  APGA    1444 14.70      6602.0 1.00                           336 218 
 A732 BE  APGA  C 1444 14.14      4446.0 0.88                           336 218 
 ARGI SZ IP       1442 36.58     12090.2 0.72            100   -0.4710 29.5 234 
 ARGI SZ  APGA    1442 36.70     839.0e4 0.14                          29.5 234 
 ARGI SZ  IAML    1442 50.92     12090.2 0.72                          29.5 234 
 ARGI SN  APGA    1442 42.23     817.8e4 0.14                          29.5 234  
 ARGI SN IS       1442 42.44                             100    0.3110 29.5 234 
 ARGI SE  APGA    1442 42.66      10.9e6 0.18                          29.5 234 
 CHIVOSZ IP       1442 49.18                              91   -0.1110  110   4 
 CHIVOSZ  APGA    1442 50.22     499.3e4 0.11                           110   4 
 CHIVOSN IS       1443  4.66                              91    0.2510  110   4 
 CHIVOSN  APGA  C 1443 10.67      11.6e6 0.42                           110   4 
 LNSK SZ IP       1442 35.49                             110   -0.5710 22.7 123 
 LNSK SZ  IAML    1442 39.94      6007.5 0.38                          22.7 123 
 LNSK SZ  APGA  C 1442 40.11     873.5e4 0.10                          22.7 123 
 LNSK SZ  E     C 1442 41.13      19.4e4 0.16                                   
 LNSK SN  APGA  C 1442 39.82      18.2e6 0.54                          22.7 123 
 LNSK SN IS       1442 40.72                             110    0.4010 22.7 123 
 LNSK SN  E       1442 40.01      52.3e4 0.21                                   
 LNSK SE  E     C 1442 40.07      60.0e4 73.1                                   
 NGLK SZ  APGA    1442 36.66      11.8e6 0.13                          30.4   7 
 NGLK SZ IP       1442 37.54                              99    0.3610 30.4   7 
 NGLK SZ  IAML    1442 40.88     10523.9 0.27                          30.4   7 
 NGLK SZ  E     C 1442 40.82      26.9e4 0.26                                   
 NGLK SN  APGA  C 1442 39.20      37.8e6 0.10                          30.4   7 
 NGLK SN IS       1442 42.09                              99   -0.2810 30.4   7 
 NGLK SN  E     C 1442 39.19      63.9e4 0.11                                   
 NGLK SE  E       1442 39.25     114.7e4 0.54                                   
                                                                                
 2014  630 1447 11.0 L                       SAK                               1
 ACTION:UP  21-11-13 11:07 OP:vi   STATUS:               ID:20140630144711     I
 OLDACT:ARG 21-10-16 08:48 OP:vi   STATUS:               ID:20140630144711     3
 2014-06-30-1447-11S.IMGG__030                                                 6
 STAT SP IPHASW D HRMM SECON CODA AMPLIT PERI AZIMU VELO AIN AR TRES W  DIS CAZ7
 ARGI SZ IP       1448 20.08                                                    
 ARGI SZ  IAML    1448 23.35       758.7 0.29                                   
 ARGI SZ  APGA  C 1448 20.14     102.4e4 0.13                                   
 ARGI SZ  E     C 1448 55.13     24508.6 31.6                                   
 ARGI SN IS       1448 25.91                                                    
 ARGI SN  APGA    1448 25.97     184.4e4 0.14                                   
 ARGI SN  E     C 1448 50.12     33444.7 26.6                                   
 ARGI SE  APGA  C 1448 25.99     158.8e4 0.13                                   
 ARGI SE  E     C 1448 26.01     28570.6 0.37                                   
                                                                                
 2014  630 1511 27.7 L  51.506 143.066  0.3  SAK  5 2.1 3.4LSAK                1
 GAP=129        5.50       9.9    20.6 11.5 -0.4747E+02  0.1074E+02 -0.1602E+01E
 ACTION:UP  21-11-13 11:07 OP:vi   STATUS:               ID:20140630151050     I
 OLDACT:ARG 21-10-16 08:48 OP:vi   STATUS:               ID:20140630151050     3
 2014-06-30-1510-50S.IMGG__030                                                 6
 STAT SP IPHASW D HRMM SECON CODA AMPLIT PERI AZIMU VELO AIN AR TRES W  DIS CAZ7
 A732 BZ IP       1512 18.22                              18    1.3710  335 218 
 A732 BZ  APGA  C 1513 27.31      2465.0 1.16                                   
 A732 BN IS       1512 54.24                              18   -2.8910  335 218 
 A732 BN  APGA  D 1513 13.14      4441.5 0.70                                   
 A732 BE  APGA  C 1513 12.46      3107.5 0.78                                   
 ARGI SZ IP       1511 34.88                              25    0.6410 28.9 235 
 ARGI SZ  IAML    1511 49.18      8023.4 0.67                          28.9 235 
 ARGI SZ  APGA    1511 34.92     455.9e4 0.18                                   
 ARGI SZ  E     C 1511 49.26      10.2e4 0.30                                   
 ARGI SN IS       1511 40.65                              25    1.0810 28.9 235 
 ARGI SN  APGA  C 1511 40.80     728.9e4 0.22                                   
 ARGI SN  E     C 1511 40.71      35.0e4 0.26                                   
 ARGI SE  APGA  C 1511 40.93     744.4e4 0.24                                   
 ARGI SE  E     C 1511 40.83      24.7e4 0.38                                   
 CHIVOSZ IP       1511 47.14                              22   -0.7310  111   4 
 CHIVOSZ  APGA    1511 50.72     418.6e4 0.13                                   
 CHIVOSN IS       1512  8.86                              22    4.4710  111   4 
 CHIVOSN  APGA  C 1512  8.79     951.5e4 0.35                                   
 CHIVOSE  APGA    1512  1.87     828.5e4 0.43                                   
 LNSK SZ IP       1511 33.46                              25    0.2810 22.6 121 
 LNSK SZ  IAML    1511 39.23      3284.0 0.21                          22.6 121 
 LNSK SZ  APGA    1511 38.69     798.1e4 0.10                                   
 LNSK SZ  E     C 1511 38.52      12.9e4 0.27                                   
 LNSK SN IS       1511 38.03                              25    0.3910 22.6 121 
 LNSK SN  APGA    1511 38.68      11.2e6 0.13                                   
 LNSK SN  E     C 1511 38.61      26.5e4 0.14                                   
 LNSK SE  APGA    1511 38.09      10.3e6 0.22                                   
 LNSK SE  E       1511 37.94      39.7e4 0.42                                   
 NGLK SZ IP       1511 33.00                              25   -1.6110 31.1   8 
 NGLK SZ  APGA  C 1511 34.56      22.8e6 0.13                                   
 NGLK SZ  E     C 1511 37.58      29.6e4 0.13                                   
 NGLK SN IS       1511 37.24                              25   -3.0010 31.1   8 
 NGLK SN  APGA  C 1511 37.31      26.4e6 0.38                                   
 NGLK SN  E     C 1511 37.26      62.8e4 0.16                                   
 NGLK SE  APGA  C 1511 37.22      56.3e6 0.53                                   
 NGLK SE  E     C 1511 37.23     139.3e4 0.53                                   
                                                                                
 2014  630 1618 36.8 L  50.620 139.142 32.0  SAK  422.8 4.5LSAK                1
 GAP=257       58.70     344.3   806.6370.1 -0.2177E+06  0.1997E+06 -0.9951E+05E
 ACTION:UP  21-11-13 11:07 OP:vi   STATUS:               ID:20140630161902     I
 OLDACT:ARG 21-10-16 08:48 OP:vi   STATUS:               ID:20140630161902     3
 2014-06-30-1619-02S.IMGG__027                                                 6
 STAT SP IPHASW D HRMM SECON CODA AMPLIT PERI AZIMU VELO AIN AR TRES W  DIS CAZ7
 A732 BZ IP       1619  8.26                             112   -0.7610  188 154 
 A732 BZ  APGA  C 1622 32.07       691.0 0.14                                   
 A732 BN IS       1619 23.00                             112   -12.410  188 154 
 A732 BN  APGA  C 1622 32.49      1197.0 0.18                                   
 A732 BE  APGA  D 1622 15.47       947.0 0.12                                   
 ARGI SZ IP       1619 56.69                             106   36.6510  265  71 
 ARGI SZ  IAML    1620 10.82       475.3 0.77                           265  71 
 ARGI SZ  APGA  C 1619 56.73      74.5e4 0.11                                   
 ARGI SZ  E     C 1619 59.86      13.6e4 69.9                                   
 ARGI SN IS       1620  3.00                             106    7.5010  265  71 
 ARGI SN  APGA  C 1620  2.54     102.7e4 0.19                                   
 ARGI SN  E     C 1620  2.58     42371.5 27.5                                   
 ARGI SE  APGA  C 1620  3.09     101.2e4 0.40                                   
 ARGI SE  E     C 1620  2.79     32902.1 44.5                                   
 CHIVOSZ IP       1619  9.05                              50   -13.610  349  52 
 CHIVOSZ  APGA  C 1619 52.92     105.7e4 0.11                                   
 CHIVOSN IS       1619 21.15                              50   -39.210  349  52 
 CHIVOSN  APGA  C 1620 25.75      99.5e4 0.18                                   
 CHIVOSE  APGA  C 1619 44.50      81.0e4 0.18                                   
 LNSK SZ IP       1619 55.32                             103   29.0310  307  72 
 LNSK SZ  IAML    1620  0.71       315.7 0.21                           307  72 
 LNSK SZ  APGA    1619 55.33     125.3e4 0.11                                   
 LNSK SZ  E       1620  4.11     29728.7 42.7                                   
 LNSK SN IS       1619 59.71                             103   -7.1710  307  72 
 LNSK SN  APGA    1620  0.02     149.0e4 0.22                                   
 LNSK SN  E       1620  0.13     39913.2 34.8                                   
 LNSK SE  APGA  C 1619 59.96     184.5e4 0.13                                   
 LNSK SE  E     C 1619 59.95     46496.0 0.16                                   
                                                                                
 2014  630 1656 27.0 L  49.091 140.254  0.0  SAK  529.0                        1
 GAP=303       75.88     276.5   391.5127.6 -0.6586E+05  0.7313E+04  0.1413E+05E
 ACTION:UP  21-11-13 11:07 OP:vi   STATUS:               ID:20140630165551     I
 OLDACT:ARG 21-10-16 08:48 OP:vi   STATUS:               ID:20140630165551     3
 2014-06-30-1655-51S.IMGG__027                                                 6
 STAT SP IPHASW D HRMM SECON CODA AMPLIT PERI AZIMU VELO AIN AR TRES W  DIS CAZ7
 UGL1 BZ IP       1656 27.12                              22   -23.410  132  90 
 UGL1 BZ  APGA  C 1657 54.70      1938.0 10.2                                   
 UGL1 BN IS       1658 14.90                              22   65.1410  132  90 
 UGL1 BN  APGA    1658 15.75      1744.5 1.84                                   
 A732 BZ IP       1655 56.28                              92   -30.810 0.05  46 
 A732 BZ  APGA  C 1659  4.02       409.0 0.12                                   
 A732 BN IS       1656 10.23                              92   -16.810 0.05  46 
 A732 BN  APGA    1656 23.05       940.5 0.12                                   
 A732 BE  APGA  C 1658 21.00       673.5 0.12                                   
 ARGI SZ IP       1657 29.05                              18   16.2010  308  34 
 ARGI SZ  IAML    1657 48.88        71.0 35.1                           308  34 
 ARGI SZ  APGA  C 1657 28.87      19.2e4 0.10                                   
 ARGI SN EP       1657 35.21                              18   22.3610  308  34 
 ARGI SN  APGA    1657 34.60      15.7e4 0.13                                   
 ARGI SE  APGA  C 1657 29.02     90195.0 0.10                                   
 LNSK SZ IP       1657 29.59                              18   12.8910  338  39 
 LNSK SZ  IAML    1657 39.05       102.6 28.6                           338  39 
 LNSK SZ  APGA  C 1657 30.20      13.1e4 0.10                                   
 LNSK SN IS       1657 34.15                              18   -23.310  338  39 
 LNSK SN  APGA  C 1657 33.65      13.8e4 0.10                                   
 LNSK SE  APGA  C 1657 32.10      15.6e4 0.19                                   
 NGLK SZ IP       1657 26.90                              18    7.2110  362  33 
 NGLK SZ  IAML    1657 36.78        56.6 11.3                           362  33 
 NGLK SZ  APGA    1657 28.95      41.3e4 0.13                                   
 NGLK SN IS       1657 33.34                              18   -29.510  362  33 
 NGLK SN  APGA  C 1657 31.83      35.4e4 0.10                                   
 NGLK SE  APGA  C 1657 31.65      56.1e4 0.11                                   
                                                                                
 2014  630 1740 45.4 L  51.570 143.152  2.1  SAK  612.1 2.9LSAK                1
 GAP=144       32.03      46.8   144.5112.8 -0.1274E+04  0.2568E+04  0.3407E+03E
 ACTION:UP  21-11-13 11:08 OP:vi   STATUS:               ID:20140630174012     I
 OLDACT:ARG 21-10-16 08:48 OP:vi   STATUS:               ID:20140630174012     3
 2014-06-30-1740-12S.IMGG__027                                                 6
 STAT SP IPHASW D HRMM SECON CODA AMPLIT PERI AZIMU VELO AIN AR TRES W  DIS CAZ7
 A732 BZ IP       1742 14.03                              29   39.1610  344 218 
 A732 BZ  APGA  C 1741 49.71       373.5 0.16                                   
 A732 BN IS       1742 13.77                              29   -1.6610  344 218 
 A732 BN  APGA  C 1741 47.59      1056.0 0.20                                   
 A732 BE  APGA    1740 42.44      1090.0 0.18                                   
 ARGI SZ IP       1740 46.83                              41   -5.8410 38.0 231 
 ARGI SZ  IAML    1740 57.44      1166.8 0.48                          38.0 231 
 ARGI SZ  APGA  C 1740 47.18     200.5e4 0.11                                   
 ARGI SZ  E     C 1740 47.18     98970.6 48.6                                   
 ARGI SN IS       1740 53.86                              41   -4.7710 38.0 231 
 ARGI SN  APGA    1740 53.07     317.2e4 0.16                                   
 ARGI SN  E     C 1740 53.00      10.3e4 0.19                                   
 ARGI SE  APGA  C 1740 53.02     295.2e4 0.13                                   
 ARGI SE  E     C 1740 53.07     71192.0 0.14                                   
 CHIVOSZ IP       1741  2.71                              41   -0.9110  104   1 
 CHIVOSZ  APGA  C 1741 12.90     142.9e4 0.10                                   
 CHIVOSN IS       1741 20.92                              41    2.3610  104   1 
 CHIVOSN  APGA  C 1741 20.84     171.6e4 0.32                                   
 CHIVOSE  APGA  C 1741 24.38     126.0e4 0.21                                   
 LNSK SZ IP       1740 45.27                              41   -4.9210 23.1 145 
 LNSK SZ  IAML    1740 50.91      1093.1 0.24                          23.1 145 
 LNSK SZ  APGA  C 1740 45.64     268.2e4 0.10                                   
 LNSK SZ  E     C 1740 50.37     39478.0 1.02                                   
 LNSK SN IS       1740 53.60                              41   -0.5210 23.1 145 
 LNSK SN  APGA  C 1740 51.63     204.0e4 0.24                                   
 LNSK SN  E       1740 50.55     62875.5 0.19                                   
 LNSK SE  APGA  C 1740 50.35     366.8e4 0.14                                   
 LNSK SE  E     C 1740 50.99     99325.1 0.19                                   
 NGLK SZ IP       1740 45.01                              41   -5.2910 23.7 356 
 NGLK SZ  IAML    1740 49.64      1740.7 0.14                          23.7 356 
 NGLK SZ  APGA  C 1740 46.81     479.8e4 0.14                                   
 NGLK SZ  E     C 1740 49.67     71031.3 0.14                                   
 NGLK SN IS       1740 49.95                              41   -4.3610 23.7 356 
 NGLK SN  APGA  C 1740 49.88     891.4e4 0.10                                   
 NGLK SN  E     C 1740 49.87      18.6e4 0.13                                   
 NGLK SE  APGA  C 1740 49.50      15.7e6 0.14                                   
 NGLK SE  E       1740 49.49      40.5e4 0.14                                   
 TYV  BZ IP       1740 54.39                              41   -6.3310 85.9 204 
 TYV  BN IS       1741  6.36                              41   -6.9110 85.9 204 
                                                                                
